{
  "norad_id": 61575,
  "name": "STARLINK-11376 [DTC]",
  "history": [
    {
      "epoch": "2026-03-28T17:52:56.948448Z",
      "apogee_km": 360.2334681502243,
      "perigee_km": 359.21820697786006,
      "latitude_deg": 2.762087469747407e-05,
      "longitude_deg": 107.88379192063486,
      "height_km": 360.7846312086676,
      "semi_major_axis_km": 6737.862837564042,
      "eccentricity": 7.534e-05,
      "inclination_deg": 53.1596,
      "raan_deg": 202.2822,
      "arg_perigee_deg": 106.5603,
      "mean_anomaly_deg": 253.5498,
      "mean_motion_rev_day": 15.69710319
    },
    {
      "epoch": "2026-03-30T00:26:39.365088Z",
      "apogee_km": 360.2711496019256,
      "perigee_km": 359.22718151943354,
      "latitude_deg": -4.202329989142763e-05,
      "longitude_deg": 1.9257766625969897,
      "height_km": 360.5814733988494,
      "semi_major_axis_km": 6737.88616556068,
      "eccentricity": 7.747e-05,
      "inclination_deg": 53.1598,
      "raan_deg": 196.0061,
      "arg_perigee_deg": 80.9867,
      "mean_anomaly_deg": 279.1238,
      "mean_motion_rev_day": 15.69702167
    },
    {
      "epoch": "2026-03-30T12:40:07.814208Z",
      "apogee_km": 360.3119786903444,
      "perigee_km": 359.16276683732576,
      "latitude_deg": -6.944804985629732e-05,
      "longitude_deg": 175.54387360183006,
      "height_km": 360.72198718269243,
      "semi_major_axis_km": 6737.874372763835,
      "eccentricity": 8.528e-05,
      "inclination_deg": 53.1594,
      "raan_deg": 193.4948,
      "arg_perigee_deg": 97.0654,
      "mean_anomaly_deg": 263.046,
      "mean_motion_rev_day": 15.69706288
    }
  ]
}